CCSDS_OMM_VERS = 2.0
CREATION_DATE  = 
ORIGINATOR     = 

OBJECT_NAME    = KNACKSAT-2
OBJECT_ID      = 1998-067XZ
CENTER_NAME    = EARTH
REF_FRAME      = TEME
TIME_SYSTEM    = UTC
MEAN_ELEMENT_THEORY = SGP/SGP4

EPOCH          = 2026-03-16T20:58:56.810496
MEAN_MOTION    = 15.52449254
ECCENTRICITY   = .0009623
INCLINATION    = 51.6315
RA_OF_ASC_NODE = 36.1333
ARG_OF_PERICENTER = 211.2162
MEAN_ANOMALY   = 148.8257

EPHEMERIS_TYPE = 0
CLASSIFICATION_TYPE = U
NORAD_CAT_ID   = 67683
ELEMENT_SET_NO = 999
REV_AT_EPOCH   = 590
BSTAR          = .55137E-3
MEAN_MOTION_DOT = .34077E-3
MEAN_MOTION_DDOT = 0

CCSDS_OMM_VERS = 2.0
CREATION_DATE  = 
ORIGINATOR     = 

OBJECT_NAME    = GXIBA-1
OBJECT_ID      = 1998-067YA
CENTER_NAME    = EARTH
REF_FRAME      = TEME
TIME_SYSTEM    = UTC
MEAN_ELEMENT_THEORY = SGP/SGP4

EPOCH          = 2026-03-16T21:33:32.321664
MEAN_MOTION    = 15.55558911
ECCENTRICITY   = .0011629
INCLINATION    = 51.6305
RA_OF_ASC_NODE = 35.5444
ARG_OF_PERICENTER = 201.5338
MEAN_ANOMALY   = 158.5165

EPHEMERIS_TYPE = 0
CLASSIFICATION_TYPE = U
NORAD_CAT_ID   = 67684
ELEMENT_SET_NO = 999
REV_AT_EPOCH   = 591
BSTAR          = .10013E-2
MEAN_MOTION_DOT = .70171E-3
MEAN_MOTION_DDOT = 0

CCSDS_OMM_VERS = 2.0
CREATION_DATE  = 
ORIGINATOR     = 

OBJECT_NAME    = CORAL
OBJECT_ID      = 1998-067YB
CENTER_NAME    = EARTH
REF_FRAME      = TEME
TIME_SYSTEM    = UTC
MEAN_ELEMENT_THEORY = SGP/SGP4

EPOCH          = 2026-03-16T14:39:13.711104
MEAN_MOTION    = 15.52855241
ECCENTRICITY   = .0011531
INCLINATION    = 51.6321
RA_OF_ASC_NODE = 37.3725
ARG_OF_PERICENTER = 206.9164
MEAN_ANOMALY   = 153.1229

EPHEMERIS_TYPE = 0
CLASSIFICATION_TYPE = U
NORAD_CAT_ID   = 67685
ELEMENT_SET_NO = 999
REV_AT_EPOCH   = 586
BSTAR          = .5914E-3
MEAN_MOTION_DOT = .37176E-3
MEAN_MOTION_DDOT = 0

CCSDS_OMM_VERS = 2.0
CREATION_DATE  = 
ORIGINATOR     = 

OBJECT_NAME    = ISS OBJECT YC
OBJECT_ID      = 1998-067YC
CENTER_NAME    = EARTH
REF_FRAME      = TEME
TIME_SYSTEM    = UTC
MEAN_ELEMENT_THEORY = SGP/SGP4

EPOCH          = 2026-03-16T20:37:52.222944
MEAN_MOTION    = 15.53562800
ECCENTRICITY   = .000841
INCLINATION    = 51.6315
RA_OF_ASC_NODE = 36.0383
ARG_OF_PERICENTER = 176.6360
MEAN_ANOMALY   = 183.4689

EPHEMERIS_TYPE = 0
CLASSIFICATION_TYPE = U
NORAD_CAT_ID   = 67686
ELEMENT_SET_NO = 999
REV_AT_EPOCH   = 590
BSTAR          = .70794E-3
MEAN_MOTION_DOT = .45755E-3
MEAN_MOTION_DDOT = 0

CCSDS_OMM_VERS = 2.0
CREATION_DATE  = 
ORIGINATOR     = 

OBJECT_NAME    = LEOPARD
OBJECT_ID      = 1998-067YD
CENTER_NAME    = EARTH
REF_FRAME      = TEME
TIME_SYSTEM    = UTC
MEAN_ELEMENT_THEORY = SGP/SGP4

EPOCH          = 2026-03-16T20:54:18.247392
MEAN_MOTION    = 15.52649439
ECCENTRICITY   = .0008159
INCLINATION    = 51.6319
RA_OF_ASC_NODE = 36.1138
ARG_OF_PERICENTER = 180.5366
MEAN_ANOMALY   = 179.5616

EPHEMERIS_TYPE = 0
CLASSIFICATION_TYPE = U
NORAD_CAT_ID   = 67687
ELEMENT_SET_NO = 999
REV_AT_EPOCH   = 582
BSTAR          = .55973E-3
MEAN_MOTION_DOT = .34839E-3
MEAN_MOTION_DDOT = 0

CCSDS_OMM_VERS = 2.0
CREATION_DATE  = 
ORIGINATOR     = 

OBJECT_NAME    = ISS OBJECT YE
OBJECT_ID      = 1998-067YE
CENTER_NAME    = EARTH
REF_FRAME      = TEME
TIME_SYSTEM    = UTC
MEAN_ELEMENT_THEORY = SGP/SGP4

EPOCH          = 2026-03-17T02:53:56.618880
MEAN_MOTION    = 15.53266853
ECCENTRICITY   = .000826
INCLINATION    = 51.6318
RA_OF_ASC_NODE = 34.7818
ARG_OF_PERICENTER = 178.5408
MEAN_ANOMALY   = 181.5608

EPHEMERIS_TYPE = 0
CLASSIFICATION_TYPE = U
NORAD_CAT_ID   = 67688
ELEMENT_SET_NO = 999
REV_AT_EPOCH   = 586
BSTAR          = .59575E-3
MEAN_MOTION_DOT = .37974E-3
MEAN_MOTION_DDOT = 0

CCSDS_OMM_VERS = 2.0
CREATION_DATE  = 
ORIGINATOR     = 

OBJECT_NAME    = CREW DRAGON 12
OBJECT_ID      = 2026-031A
CENTER_NAME    = EARTH
REF_FRAME      = TEME
TIME_SYSTEM    = UTC
MEAN_ELEMENT_THEORY = SGP/SGP4

EPOCH          = 2026-03-17T03:05:26.611872
MEAN_MOTION    = 15.48331788
ECCENTRICITY   = .0006017
INCLINATION    = 51.6339
RA_OF_ASC_NODE = 35.5823
ARG_OF_PERICENTER = 202.6546
MEAN_ANOMALY   = 157.4177

EPHEMERIS_TYPE = 0
CLASSIFICATION_TYPE = U
NORAD_CAT_ID   = 67796
ELEMENT_SET_NO = 999
REV_AT_EPOCH   = 55740
BSTAR          = .19871E-3
MEAN_MOTION_DOT = .10265E-3
MEAN_MOTION_DDOT = 0

