KNACKSAT-2              
1 67683U 98067XZ  26075.87426864  .00034077  00000+0  55137-3 0  9999
2 67683  51.6315  36.1333 0009623 211.2162 148.8257 15.52449254  5907
GXIBA-1                 
1 67684U 98067YA  26075.89829076  .00070171  00000+0  10013-2 0  9992
2 67684  51.6305  35.5444 0011629 201.5338 158.5165 15.55558911  5910
CORAL                   
1 67685U 98067YB  26075.61057536  .00037176  00000+0  59140-3 0  9990
2 67685  51.6321  37.3725 0011531 206.9164 153.1229 15.52855241  5868
ISS OBJECT YC           
1 67686U 98067YC  26075.85963221  .00045755  00000+0  70794-3 0  9994
2 67686  51.6315  36.0383 0008410 176.6360 183.4689 15.53562800  5909
LEOPARD                 
1 67687U 98067YD  26075.87104453  .00034839  00000+0  55973-3 0  9994
2 67687  51.6319  36.1138 0008159 180.5366 179.5616 15.52649439  5823
ISS OBJECT YE           
1 67688U 98067YE  26076.12079420  .00037974  00000+0  59575-3 0  9994
2 67688  51.6318  34.7818 0008260 178.5408 181.5608 15.53266853  5863
CREW DRAGON 12          
1 67796U 26031A   26076.12878023  .00010265  00000+0  19871-3 0  9991
2 67796  51.6339  35.5823 0006017 202.6546 157.4177 15.48331788557400
